80P/Peters-Hartley,e,29.9441,259.8221,339.2538,4.024224,0.1220902,0.59912230,249.6909,06/18.0/2020,2000,g  9.0,4.0
# From MPC105241
81P/Wild,e,3.2369,136.1042,41.7172,3.450329,0.1537848,0.53719584,219.9257,06/18.0/2020,2000,g  7.0,6.0
# From MPEC 2020-L06
82P/Gehrels,e,1.1283,239.3140,226.8913,4.137098,0.1171279,0.12175894,84.6275,06/18.0/2020,2000,g  5.0,8.0
# From MPC105241
84P/Giclas,e,7.5523,108.1746,281.5623,3.547430,0.1475140,0.51546794,2.0929,06/18.0/2020,2000,g  9.5,8.0
# From MPC109147
86P/Wild,e,15.4752,72.3745,179.3210,3.603957,0.1440571,0.37263792,273.6630,06/18.0/2020,2000,g 11.0,6.0
# From MPC105241
87P/Bus,e,2.6023,181.8618,24.9336,3.437708,0.1546324,0.38917334,6.1452,06/18.0/2020,2000,g  7.2,10.0
# From MPEC 2019-JE2
88P/Howell,e,4.3838,56.6855,235.9168,3.105603,0.1800882,0.56431294,341.8785,06/18.0/2020,2000,g 11.0,6.0
# From MPC100283
89P/Russell,e,12.0708,41.4136,250.2702,3.753871,0.1355143,0.40871052,173.4965,06/18.0/2020,2000,g 11.5,6.0
# From MPC107051
90P/Gehrels,e,9.6410,13.2141,29.1118,6.055320,0.0661452,0.50960474,72.4404,06/18.0/2020,2000,g  8.5,6.0
# From MPC105241
91P/Russell,e,14.0917,247.8281,354.7890,3.890259,0.1284507,0.33057310,341.4593,06/18.0/2020,2000,g  7.5,6.0
# From MPEC 2014-J58
92P/Sanguin,e,19.4786,181.3879,163.7136,5.345528,0.0797477,0.66048094,154.2531,06/18.0/2020,2000,g 12.0,6.0
# From NK 2707
93P/Lovas,e,12.2017,339.6293,74.8619,4.384624,0.1073509,0.61208043,129.3858,06/18.0/2020,2000,g  9.0,4.0
# From MPEC 2013-O31
94P/Russell,e,6.1879,70.8594,92.5111,3.507065,0.1500681,0.36470014,199.7220,06/18.0/2020,2000,g  9.0,4.0
# From MPC 75717
95P/Chiron,e,6.9391,209.2443,339.8079,13.68662,0.0194652,0.37869022,173.1897,06/18.0/2020,2000,g  6.5,2.0
# From MPEC 2017-T14
96P/Machholz,e,58.1623,94.1985,14.6539,3.027441,0.1871072,0.96149621,180.6574,06/18.0/2020,2000,g  9.0,4.0
# From MPC 77020
97P/Metcalf-Brewington,e,17.8848,184.3044,229.3389,4.784034,0.0941917,0.46146097,302.9072,06/18.0/2020,2000,g  5.5,6.0
# From MPEC 2013-H38
98P/Takamizawa,e,10.5614,114.7118,157.9172,3.798752,0.1331198,0.56220037,333.2526,06/18.0/2020,2000,g  9.0,8.0
# From MPEC 2020-L06
99P/Kowal,e,4.3380,28.1236,174.9250,6.113724,0.0651997,0.23034162,316.7354,06/18.0/2020,2000,g  4.5,6.0
# From MPEC 2013-O31
100P/Hartley,e,25.5723,37.7171,182.0046,3.431558,0.1550483,0.41264037,238.4707,06/18.0/2020,2000,g  9.0,4.0
# From MPC115887
101P/Chernykh,e,5.0528,116.2309,277.6935,5.798571,0.0705866,0.59561243,11.1162,06/18.0/2020,2000,g 12.0,4.8
# From MPC 86232
102P/Shoemaker,e,25.8765,339.3770,20.5279,3.816235,0.1322061,0.45764559,331.1312,06/18.0/2020,2000,g  6.5,8.0
# From MPEC 2018-HA5
103P/Hartley,e,13.5931,219.7274,181.2960,3.476690,0.1520391,0.69288872,175.6581,06/18.0/2020,2000,g  8.5,8.0
# From MPC100283
104P/Kowal,e,5.7416,208.6180,226.0606,3.205750,0.1717155,0.66866102,262.0262,06/18.0/2020,2000,g 16.0,4.0
# From MPC109147
105P/Singer Brewster,e,9.1735,192.4197,46.4661,3.466400,0.1527165,0.40992782,103.5274,06/18.0/2020,2000,g 11.5,6.0
# From MPC 92276
106P/Schuster,e,19.5598,49.0191,353.5712,3.764870,0.1349209,0.59443811,302.4434,06/18.0/2020,2000,g 14.0,4.8
# From MPEC 2015-M77
107P/Wilson-Harrington,e,2.7983,266.8171,95.3705,2.625873,0.2316293,0.63121248,175.1875,06/18.0/2020,2000,g  9.0,4.0
# From MPC 89313
108P/Ciffreo,e,11.4595,50.5108,354.2244,3.743417,0.1360823,0.55724620,298.9422,06/18.0/2020,2000,g  8.0,12.0
# From  105, 420
109P/Swift-Tuttle,e,113.9293,139.0850,152.8767,26.10902,0.0073879,0.96315796,74.3439,06/18.0/2020,2000,g  4.0,6.0
# From MPC 92276
110P/Hartley,e,11.7073,287.5333,167.4377,3.600781,0.1442477,0.31781992,289.6984,06/18.0/2020,2000,g  1.0,12.0
# From MPC 75718
111P/Helin-Roman-Crockett,e,4.2275,89.7636,1.1628,4.144501,0.1168142,0.10548280,317.4992,06/18.0/2020,2000,g  5.0,8.0
# From MPC118097
112P/Urata-Niijima,e,24.1905,31.8476,21.4984,3.526169,0.1488502,0.58975844,19.5050,06/18.0/2020,2000,g 14.0,6.0
# From MPEC 2015-E14
113P/Spitaler,e,5.2858,306.7930,115.5232,3.698643,0.1385608,0.42836720,261.8628,06/18.0/2020,2000,g 13.5,4.0
# From MPEC 2019-TG9
114P/Wiseman-Skiff,e,18.2723,271.0597,172.8040,3.546971,0.1475427,0.55473914,23.0064,06/18.0/2020,2000,g 11.5,6.0
# From MPC105241
115P/Maury,e,11.6740,176.0219,121.0164,4.276695,0.1114402,0.51904339,355.3459,06/18.0/2020,2000,g 10.5,6.0
# From MPC106348
116P/Wild,e,3.6041,20.9970,173.3919,3.488362,0.1512766,0.37091774,245.1811,06/18.0/2020,2000,g  2.5,10.0
# From MPEC 2015-S97
117P/Helin-Roman-Alu,e,8.7012,58.8568,222.7157,4.087075,0.1192848,0.25577279,270.6907,06/18.0/2020,2000,g  9.0,4.0
# From MPC 95735
118P/Shoemaker-Levy,e,9.4215,143.7192,310.9798,3.402320,0.1570512,0.45616083,222.2568,06/18.0/2020,2000,g 12.0,4.0
# From MPC 84628
119P/Parker-Hartley,e,7.5260,104.9372,321.3112,3.826039,0.1316982,0.40238716,258.2157,06/18.0/2020,2000,g  3.5,8.0
# From MPC 80901
120P/Mueller,e,8.4858,358.6848,36.4301,3.966078,0.1247850,0.37503431,319.7318,06/18.0/2020,2000,g 12.0,4.0
# From MPC100283
121P/Shoemaker-Holt,e,20.1638,94.1395,11.2376,4.586891,0.1003290,0.18488449,249.1985,06/18.0/2020,2000,g  6.5,8.0
# From MPC 75718
122P/de Vico,e,84.6464,79.5131,13.0218,17.63341,0.0133107,0.96228449,120.3319,06/18.0/2020,2000,g  7.5,5.2
# From MPC114608
123P/West-Hartley,e,15.3414,46.4643,103.2428,3.864129,0.1297557,0.44876441,64.6792,06/18.0/2020,2000,g  4.0,10.0
# From MPEC 2020-L06
124P/Mrkos,e,31.5131,0.3710,183.8580,3.317834,0.1630880,0.50343235,8.4978,06/18.0/2020,2000,g 13.5,2.8
# From MPEC 2015-M77
125P/Spacewatch,e,9.9873,153.1628,87.2155,3.124937,0.1784194,0.51314124,117.7858,06/18.0/2020,2000,g  9.0,4.0
# From MPC 66205
126P/IRAS,e,45.8486,357.8458,356.4968,5.642343,0.0735385,0.69598214,278.1836,06/18.0/2020,2000,g  9.0,4.0
# From MPC 84321
127P/Holt-Olmstead,e,14.2984,13.6480,6.5424,3.449544,0.1538373,0.35980593,239.3279,06/18.0/2020,2000,g 11.0,6.0
# From MPC 89014
128P/Shoemaker-Holt,e,4.3657,214.2926,210.3884,4.494231,0.1034477,0.32035193,129.8869,06/18.0/2020,2000,g  8.5,4.0
# From MPEC 2019-TG9
129P/Shoemaker-Levy,e,3.4431,184.8917,308.2065,4.280867,0.1112773,0.08389744,259.7261,06/18.0/2020,2000,g 11.0,4.0
# From MPC 78188
130P/McNaught-Hughes,e,6.0641,70.2478,245.9550,3.383796,0.1583426,0.46129527,138.9976,06/18.0/2020,2000,g 10.0,6.0
# From MPC102101
131P/Mueller,e,7.3533,214.1775,179.0421,3.681515,0.1395289,0.34357793,71.2794,06/18.0/2020,2000,g 11.0,4.0
# From MPEC 2020-HN5
132P/Helin-Roman-Alu,e,5.3783,174.1392,216.3921,3.882847,0.1288186,0.56550266,293.8976,06/18.0/2020,2000,g 11.0,6.0
# From MPC 94676
133P/Elst-Pizarro,e,1.3891,160.1270,131.6853,3.163476,0.1751690,0.15721531,111.3273,06/18.0/2020,2000,g 15.4,2.0
# From MPC 89012
134P/Kowal-Vavrova,e,4.3445,202.0827,18.8681,6.257231,0.0629696,0.58687130,139.7910,06/18.0/2020,2000,g 11.5,4.0
# From MPEC 2015-E14
135P/Shoemaker-Levy,e,6.0614,213.0502,22.2436,3.804267,0.1328305,0.29556018,272.5996,06/18.0/2020,2000,g  9.0,4.0
# From MPC101100
136P/Mueller,e,9.4236,137.4438,224.8910,4.195573,0.1146878,0.29211907,169.6006,06/18.0/2020,2000,g 11.0,4.0
# From MPEC 2020-HN5
137P/Shoemaker-Levy,e,4.8534,233.0680,141.0052,4.520349,0.1025525,0.57319055,56.6659,06/18.0/2020,2000,g 11.0,4.0
# From MPEC 2016-U66
138P/Shoemaker-Levy,e,10.0909,309.3313,95.5815,3.623332,0.1429032,0.53021108,58.9136,06/18.0/2020,2000,g 15.0,6.0
# From MPEC 2020-HN5
139P/Vaisala-Oterma,e,2.3333,242.1994,165.7950,4.524962,0.1023957,0.24629572,94.3589,06/18.0/2020,2000,g  9.5,4.0
# From MPEC 2015-E14
140P/Bowell-Skiff,e,3.8271,343.3216,172.9277,6.436657,0.0603550,0.69113990,107.2628,06/18.0/2020,2000,g 11.5,6.0
# From MPC105242
141P/Machholz,e,13.9478,241.8587,153.5358,3.056613,0.1844350,0.73571209,326.7284,06/18.0/2020,2000,g 12.0,12.0
# From MPC 95735
141P-H/Machholz,e,12.8431,246.0900,149.4500,3.008012,0.1889230,0.74682218,359.9270,08/24.0/2015,2000,g 18.5,4.0
# From MPC 71683
142P/Ge-Wang,e,12.2385,176.0279,173.9876,5.006714,0.0879782,0.49845305,331.0610,06/18.0/2020,2000,g  9.0,4.0
# From MPEC 2020-HN5
143P/Kowal-Mrkos,e,4.6970,245.2723,320.5083,4.286878,0.1110433,0.41057851,85.9441,06/18.0/2020,2000,g 13.5,2.0
# From MPC104795
144P/Kushida,e,3.9934,244.0009,215.8049,3.809063,0.1325796,0.63933393,185.3928,06/18.0/2020,2000,g  8.5,8.0
# From MPC108598
145P/Shoemaker-Levy,e,11.2656,26.7907,10.2671,4.140329,0.1169908,0.54087396,119.4709,06/18.0/2020,2000,g 13.5,4.0
# From MPC100284
146P/Shoemaker-LINEAR,e,23.0817,53.4265,316.9088,4.033591,0.1216652,0.64649292,176.2658,06/18.0/2020,2000,g 15.0,4.0
# From MPC 75720
147P/Kushida-Muramatsu,e,2.3692,93.3373,351.4232,3.937463,0.1261477,0.24557708,201.3617,06/18.0/2020,2000,g 14.0,4.0
# From MPEC 2014-R70
148P/Anderson-LINEAR,e,3.6793,89.6330,6.7644,3.650007,0.1413395,0.54722175,257.3971,06/18.0/2020,2000,g  9.0,4.0
# From MPC 75720
149P/Mueller,e,29.8005,145.1453,44.0561,4.325979,0.1095412,0.39089706,53.2599,06/18.0/2020,2000,g  8.0,8.0
# From MPC 75720
150P/LONEOS,e,18.5075,272.4038,245.5803,3.880168,0.1289520,0.54652599,183.8047,06/18.0/2020,2000,g 13.5,4.0
# From MPEC 2015-Q71
151P/Helin,e,4.7267,143.1488,216.0511,5.764867,0.0712066,0.57291791,122.0430,06/18.0/2020,2000,g 10.0,6.0
# From MPC 79346
152P/Helin-Lawrence,e,9.8798,91.8696,163.8096,4.481284,0.1038964,0.30914925,300.3572,06/18.0/2020,2000,g 11.5,4.0
# From MPC 46101
153P/Ikeya-Zhang,e,27.7073,93.0468,35.2146,50.89375,0.0027146,0.98965443,0.0000,03/10.7627/2002,2000,g  9.0,4.0
# From MPC 87068
154P/Brewington,e,17.6294,343.0139,47.8498,4.803894,0.0936082,0.67510224,223.5260,06/18.0/2020,2000,g  2.5,12.0
# From MPC118098
155P/Shoemaker,e,6.3959,97.1979,14.6573,6.585949,0.0583145,0.72642075,12.5962,06/18.0/2020,2000,g 10.0,4.8
# From MPC105242
156P/Russell-LINEAR,e,17.2624,35.3755,0.4085,3.460728,0.1530922,0.61479054,336.5993,06/18.0/2020,2000,g 15.5,2.0
# From MPC104795
157P/Tritton,e,12.9157,287.9296,155.8784,3.505690,0.1501564,0.57787960,239.8359,06/18.0/2020,2000,g 10.0,4.0
# From MPEC 2016-K18
